{
    "CCSDS_OMM_VERS": "3.0",
    "COMMENT": "GENERATED VIA SPACE-TRACK.ORG API",
    "CREATION_DATE": "2025-11-23T23:06:32",
    "ORIGINATOR": "18 SPCS",
    "OBJECT_NAME": "QZS-2",
    "OBJECT_ID": "2017-028A",
    "CENTER_NAME": "EARTH",
    "REF_FRAME": "TEME",
    "TIME_SYSTEM": "UTC",
    "MEAN_ELEMENT_THEORY": "SGP4",
    "EPOCH": "2025-11-23T11:55:28.748928",
    "MEAN_MOTION": "1.00288248",
    "ECCENTRICITY": "0.07606950",
    "INCLINATION": "39.7457",
    "RA_OF_ASC_NODE": "246.1646",
    "ARG_OF_PERICENTER": "269.2417",
    "MEAN_ANOMALY": "227.1417",
    "EPHEMERIS_TYPE": "0",
    "CLASSIFICATION_TYPE": "U",
    "NORAD_CAT_ID": "42738",
    "ELEMENT_SET_NO": "999",
    "REV_AT_EPOCH": "556",
    "BSTAR": "0.00000000000000",
    "MEAN_MOTION_DOT": "-0.00000160",
    "MEAN_MOTION_DDOT": "0.0000000000000",
    "SEMIMAJOR_AXIS": "42160.117",
    "PERIOD": "1435.861",
    "APOAPSIS": "38989.081",
    "PERIAPSIS": "32574.883",
    "OBJECT_TYPE": "PAYLOAD",
    "RCS_SIZE": "LARGE",
    "COUNTRY_CODE": "JPN",
    "LAUNCH_DATE": "2017-06-01",
    "SITE": "TNSTA",
    "DECAY_DATE": null,
    "FILE": "4896371",
    "GP_ID": "303352501",
    "TLE_LINE0": "0 QZS-2",
    "TLE_LINE1": "1 42738U 17028A   25327.49686052 -.00000160  00000-0  00000+0 0  9998",
    "TLE_LINE2": "2 42738  39.7457 246.1646 0760695 269.2417 227.1417  1.00288248  5567"
}